EYESAT-1 (AO-27)        
1 22825U 93061C   17334.16018981  .00000007  00000-0  20356-4 0  9997
2 22825  98.8360 301.9708 0007928 200.7177 159.3684 14.30014942261129
CUTE-1 (CO-55)          
1 27844U 03031E   17334.26629849  .00000083  00000-0  57471-4 0  9995
2 27844  98.6891 340.8532 0009050 222.7134 137.3341 14.22078718747929
CUBESAT XI-IV (CO-57)   
1 27848U 03031J   17333.95943826  .00000069  00000-0  51388-4 0  9993
2 27848  98.6981 340.8774 0008811 234.3661 125.6697 14.21687734747724
CUBESAT XI 5            
1 28895U 05043F   17333.97899379  .00000189  00000-0  45240-4 0  9999
2 28895  97.8828 128.8368 0016354 343.7063  16.3612 14.63479012644737
CUTE-1.7+APD II (CO-65) 
1 32785U 08021C   17334.41327670  .00000360  00000-0  44811-4 0  9995
2 32785  97.5564 351.0101 0012594 344.0847  15.9973 14.88016721519619
COMPASS-1               
1 32787U 08021E   17334.12603494  .00000319  00000-0  35972-4 0  9998
2 32787  97.5449   0.6023 0011293 308.5539  51.4668 14.92831490520252
AAUSAT-II               
1 32788U 08021F   17334.13498830  .00000287  00000-0  31927-4 0  9996
2 32788  97.5426   3.7356 0010572 298.9360  61.0799 14.94129419520451
DELFI-C3 (DO-64)        
1 32789U 08021G   17334.15733768  .00001730  00000-0  12431-3 0  9993
2 32789  97.5406  28.7722 0011176 253.9869 106.0128 15.05536729521838
CANX-2                  
1 32790U 08021H   17333.81884511  .00000331  00000-0  41941-4 0  9995
2 32790  97.5555 348.7157 0013373 347.7645  12.3245 14.87729811519388
SEEDS II (CO-66)        
1 32791U 08021J   17334.01758065  .00000511  00000-0  57826-4 0  9992
2 32791  97.5504 355.4907 0012520 327.0155  33.0281 14.90403216519844
SWISSCUBE               
1 35932U 09051B   17333.95556620  .00000165  00000-0  48296-4 0  9997
2 35932  98.5183 115.6690 0008798 101.6502 258.5683 14.56092475434442
BEESAT                  
1 35933U 09051C   17333.92873923  .00000148  00000-0  44278-4 0  9990
2 35933  98.5221 117.0600 0006957 112.4953 247.6981 14.56203197434465
ITUPSAT 1               
1 35935U 09051E   17333.94022052  .00000135  00000-0  42101-4 0  9992
2 35935  98.5334 117.3264 0009273 108.0648 252.1560 14.55388773434318
TISAT 1                 
1 36799U 10035E   17334.29820984  .00000744  00000-0  81918-4 0  9999
2 36799  98.0816 100.6177 0013335 137.7348 222.4899 14.90620562400520
M-CUBED & EXP-1 PRIME   
1 37855U 11061F   17334.44718081  .00002763  00000-0  14950-3 0  9998
2 37855 101.7139 290.3491 0178438 310.1898  48.3808 15.03832624331777
HORYU 2                 
1 38340U 12025D   17334.44781678  .00000340  00000-0  58090-4 0  9994
2 38340  98.3762 344.2453 0012688 120.5845 239.6616 14.75456114297807
STRAND-1                
1 39090U 13009E   17333.55472127  .00000065  00000-0  38202-4 0  9994
2 39090  98.5367 177.3178 0009405 163.4897 196.6597 14.34998690249192
BRITE-AUSTRIA           
1 39091U 13009F   17334.12012126  .00000028  00000-0  25000-4 0  9999
2 39091  98.5332 177.2124 0010627 169.9676 190.1724 14.35051495249295
UNIBRITE                
1 39092U 13009G   17333.78534099  .00000040  00000-0  29536-4 0  9991
2 39092  98.5344 176.5575 0009610 163.7823 196.3672 14.34925925249216
AIST-2                  
1 39133U 13015D   17334.43114659  .00000337  00000-0  36361-4 0  9996
2 39133  64.8725 120.1240 0036482 254.0685 105.6414 15.04437016253301
SOMP                    
1 39134U 13015E   17334.22378009  .00001992  00000-0  10462-3 0  9996
2 39134  64.8660  50.2313 0030833 239.3181 120.4907 15.18553614254687
BEESAT-3                
1 39135U 13015F   17334.45418350  .00002018  00000-0  11284-3 0  9999
2 39135  64.8706  60.3218 0033109 258.3141 101.4268 15.16187231254518
BEESAT-2                
1 39136U 13015G   17333.76161633  .00001985  00000-0  11284-3 0  9994
2 39136  64.8704  64.8099 0032130 259.9618  99.7881 15.15671692254363
NEE-01 PEGASUS          
1 39151U 13018B   17334.24330743  .00000258  00000-0  41328-4 0  9993
2 39151  97.9816  64.7045 0016149 229.6988 130.2813 14.79817671248094
CUBEBUG-1 (CAPITAN BETO)
1 39153U 13018D   17334.31600870  .00000331  00000-0  50396-4 0  9991
2 39153  97.9844  65.7255 0016099 227.2582 132.7276 14.80296174248168
ESTCUBE 1               
1 39161U 13021C   17334.47449710  .00000283  00000-0  53080-4 0  9994
2 39161  98.0212  58.2576 0009227 341.1678  18.9194 14.71988479245211
POPACS 1                
1 39268U 13055D   17333.91827449  .00004011  00000-0  11228-3 0  9996
2 39268  81.0030 195.0350 0645111  92.9879 274.5271 14.32668624214431
POPACS 2                
1 39269U 13055E   17333.94712631  .00003326  00000-0  96114-4 0  9992
2 39269  81.0168 212.9572 0696534 139.6088 225.9030 14.21138082213615
POPACS 3                
1 39270U 13055F   17333.39672565  .00002488  00000-0  77682-4 0  9991
2 39270  81.0192 223.4167 0722234 170.8847 190.6314 14.14022704214112
ZACUBE-1 (TSHEPISOSAT)  
1 39417U 13066B   17333.64966056  .00000353  00000-0  50778-4 0  9991
2 39417  97.6108   7.7023 0060712  88.7464 272.0703 14.80830115217269
WNISAT-1                
1 39423U 13066H   17334.31721642  .00000176  00000-0  45207-4 0  9997
2 39423  97.7008 309.0906 0174233 279.0204  79.1318 14.52904119213354
TRITON-1                
1 39427U 13066M   17334.08206781  .00000244  00000-0  46881-4 0  9992
2 39427  97.6364 338.3113 0114270 176.5994 183.6015 14.67570722215373
GOMX 1                  
1 39430U 13066Q   17334.42222783  .00000237  00000-0  52327-4 0  9998
2 39430  97.6770 320.8905 0150512 237.8335 120.8192 14.58982231214169
BRITE-PL                
1 39431U 13066R   17334.43827708  .00000125  00000-0  37503-4 0  9993
2 39431  97.7297 297.6368 0201785 321.5288  37.1664 14.46893886212487
HUMSAT-D                
1 39433U 13066T   17333.68999357  .00000564  00000-0  61149-4 0  9991
2 39433  97.6331  31.7563 0031646  29.3649 330.9340 14.91667012217505
EAGLE 2                 
1 39436U 13066W   17333.85160006  .00062141  00000-0  10854-2 0  9998
2 39436  97.7128  89.2356 0007140 206.6705 153.4179 15.50442920222189
CUBEBUG-2 (LO-74)       
1 39440U 13066AA  17334.12027629  .00000277  00000-0  45454-4 0  9995
2 39440  97.6148 356.0673 0081926 121.4588 239.4663 14.75567704216561
NEE-02 KRYSAOR          
1 39441U 13066AB  17333.88362682  .00000227  00000-0  39269-4 0  9991
2 39441  97.6137 354.3119 0083288 126.3610 234.5322 14.74702575215247
FUNCUBE-1 (AO-73)       
1 39444U 13066AE  17334.15411581  .00000358  00000-0  50554-4 0  9993
2 39444  97.6122   9.4498 0059819  83.3831 277.4187 14.81587584216180
UWE-3                   
1 39446U 13066AG  17333.87464458  .00000334  00000-0  51043-4 0  9992
2 39446  97.6115   1.5411 0071807 105.4073 255.5086 14.78101241215673
BRITE-TORONTO           
1 40020U 14033L   17334.46026300  .00000136  00000-0  31642-4 0  9996
2 40020  97.8099 197.5453 0088060 157.0273 203.4908 14.66446558184469
DUCHIFAT-1              
1 40021U 14033M   17333.70364995  .00000731  00000-0  81398-4 0  9992
2 40021  97.9155 247.0701 0014229 112.9873 247.2847 14.90116882187241
FLOCK 1C-10             
1 40023U 14033P   17334.26630044  .00001324  00000-0  14642-3 0  9993
2 40023  97.9176 246.4923 0013531 116.8755 243.3868 14.89026214187216
NANOSATC-BR1            
1 40024U 14033Q   17333.71498434  .00000596  00000-0  68604-4 0  9996
2 40024  97.9103 245.6966 0013492 114.4401 245.8225 14.89408665187187
QB50P1                  
1 40025U 14033R   17334.18779551  .00000353  00000-0  43877-4 0  9997
2 40025  97.9076 244.9536 0013722 116.4092 243.8535 14.88580321187187
FLOCK 1C-7              
1 40026U 14033S   17333.73088269  .00001387  00000-0  15046-3 0  9991
2 40026  97.9171 246.9037 0011848 114.1595 246.0882 14.89764161187190
FLOCK 1C-1              
1 40027U 14033T   17333.75698950  .00000377  00000-0  45978-4 0  9994
2 40027  97.9181 246.2589 0013539 115.8854 244.3742 14.89081816187153
POPSAT-HIP-1            
1 40028U 14033U   17334.30144113  .00000302  00000-0  38560-4 0  9991
2 40028  97.9100 245.3911 0015126 113.8346 246.4435 14.88441409187184
FLOCK 1C-2              
1 40029U 14033V   17334.32144618  .00001300  00000-0  14361-3 0  9995
2 40029  97.9197 246.6696 0014979 111.5018 248.7795 14.89113925187220
FLOCK 1C-4              
1 40031U 14033X   17333.88439289  .00000423  00000-0  51023-4 0  9991
2 40031  97.9176 246.1819 0015308 111.2824 248.9994 14.88946699187146
QB50P2                  
1 40032U 14033Y   17333.94863582  .00000343  00000-0  43242-4 0  9991
2 40032  97.9041 243.6556 0013192 112.5850 247.6763 14.88131250186575
FLOCK 1C-11             
1 40033U 14033Z   17333.71189802  .00000518  00000-0  59104-4 0  9991
2 40033  97.9194 247.8224 0013179 103.9979 256.2695 14.90362370187241
ANTELSAT                
1 40034U 14033AA  17333.74478265  .00000344  00000-0  58594-4 0  9998
2 40034  97.8357 212.3326 0060068 119.5260 241.1957 14.73815748184779
FLOCK 1C-9              
1 40035U 14033AB  17333.76652657  .00000538  00000-0  62948-4 0  9993
2 40035  97.9205 246.5522 0012942 106.9100 253.3534 14.89154052187142
FLOCK 1C-6              
1 40036U 14033AC  17333.84296105  .00000994  00000-0  11088-3 0  9999
2 40036  97.9211 246.8831 0012898 107.6970 252.5696 14.89262147187177
PERSEUS-M2              
1 40037U 14033AD  17334.21591523  .00000121  00000-0  19994-4 0  9991
2 40037  97.9048 242.0457 0015643 118.8893 241.3894 14.86297686186973
FLOCK 1C-5              
1 40038U 14033AE  17334.18837652  .00001040  00000-0  11573-3 0  9999
2 40038  97.9180 246.9994 0015144 105.9668 254.3255 14.89234186187215
PERSEUS-M1              
1 40039U 14033AF  17334.19034342  .00000144  00000-0  22754-4 0  9994
2 40039  97.9052 241.4974 0015542 115.6055 244.6768 14.85920217186923
FLOCK 1C-8              
1 40040U 14033AG  17333.76061758  .00000278  00000-0  33734-4 0  9997
2 40040  97.9244 249.2500 0013853  93.0847 267.1944 14.91189638187311
